K13GD7M  7.3   0.15 K1794  70.13973  107.60100   32.45413   22.40143  0.0777155  0.00332887  44.4226732  3 MPO377846    31   3 2013-2016 0.12 M-v 38h MPCADO     0010          2013 GM137         20160313
K13GD7O  7.3   0.15 K1794 265.08540  286.97982   35.39853   29.17325  0.0901063  0.00366174  41.6880352  4 MPO419452    34   3 2013-2015 0.14 M-v 38h MPCLINUX   0010          2013 GO137         20150427
K13GD7P  7.4   0.15 K1794 256.10463  183.85028  141.44153    1.74684  0.0223987  0.00337345  44.0304550  3 MPO419452    26   3 2013-2016 0.14 M-v 38h MPCLINUX   0010          2013 GP137         20160529
K13GD7R  8.2   0.15 K1794 308.58687  225.72781   51.38397    4.21689  0.0475401  0.00350178  42.9480249  3 MPO419452    27   3 2013-2017 0.12 M-v 38h MPCLINUX   0010          2013 GR137         20170528
K13GD7S  7.8   0.15 K1794   3.85486  121.15906   95.90714    2.59360  0.1071162  0.00335027  44.2332918  3 MPO419452    29   4 2013-2017 0.09 M-v 38h MPCLINUX   0410          2013 GS137         20170502
K13GD7U  7.6   0.15 K1794 340.25700  210.22790   35.72585    4.96097  0.0813969  0.00324288  45.2045166  3 MPO419452    36   3 2013-2017 0.13 M-v 38h MPCLINUX   0010          2013 GU137         20170527
K13GD7X  7.4   0.15 K1794 299.96947  234.56094   51.14436    4.12037  0.0611388  0.00342156  43.6167720  3 MPO419452    44   5 2013-2017 0.14 M-v 38h MPCLINUX   0410          2013 GX137         20170525
K13GD7Y  7.6   0.15 K1794 334.11464  211.48680   39.93253    5.29794  0.1073707  0.00323726  45.2568565  3 MPO419452    33   4 2013-2017 0.11 M-v 38h MPCLINUX   0410          2013 GY137         20170530
K13GD7Z  7.7   0.15 K1794  69.70512  295.88563  212.10351   21.05838  0.0499199  0.00365581  41.7330321  2 MPO419452    30   3 2013-2017 0.12 M-v 38h MPCLINUX   0010          2013 GZ137         20170529
K13GD8B  7.3   0.15 K1794 219.21176  183.84567  182.44110    2.77984  0.0440888  0.00346214  43.2752197  4 MPO347298    31   3 2013-2015 0.10 M-v 38h MPCW       0010          2013 GB138         20150126
K13GD8C  7.3   0.15 K1794 257.58799  246.92106   83.38785    3.01941  0.0480460  0.00347095  43.2019923  3 MPO419452    33   3 2013-2016 0.09 M-v 38h MPCLINUX   0010          2013 GC138         20160605
K13GD8D  8.1   0.15 K1794  15.20095  147.59550   57.04157    5.40941  0.1206160  0.00334232  44.3034551  4 MPO347298    27   3 2013-2015 0.12 M-v 38h MPCW       0010          2013 GD138         20150126
K13GD8E  7.7   0.15 K1794 125.25716   62.48584   31.53475    3.06277  0.0480928  0.00332281  44.4766786  5 MPO347298    26   2 2013-2014 0.16 M-v 38h MPCW       0010          2013 GE138         20140525
K13GD8F  7.3   0.15 K1794  77.96031  328.23720  175.50939    0.54894  0.0187914  0.00333464  44.3714100  2 MPO419452    37   5 2005-2017 0.11 M-v 38h MPCLINUX   0410          2013 GF138         20170528
K13GD8G  6.6   0.15 K1794 240.96799  129.20940  215.17513   24.53384  0.0235691  0.00298377  47.7850636  3 MPO419452    39   5 2013-2017 0.10 M-v 38h MPCLINUX   0410          2013 GG138         20170529
K13GD8J  8.0   0.15 K1794   2.23010  158.60070   17.22246   27.91630  0.7937205  0.00068961 126.8820657  1 MPO413639    24   3 2013-2017 0.20 M-v 38h MPCLINUX   0011          2013 GJ138         20170526
K13HF6R  7.9   0.15 K1794  26.12673  331.79045  214.14738   20.36078  0.1943511  0.00314719  46.1162569  3 MPO419453    34   5 2013-2017 0.12 M-v 38h MPCLINUX   0410          2013 HR156         20170526
K13HF6S  8.5   0.15 K1794 343.20633  207.80167   41.52831    8.24117  0.1826122  0.00315186  46.0707427  5 MPO347300    17   2 2013-2014 0.15 M-v 38h MPCW       0010          2013 HS156         20140626
K13HF6U  5.3   0.15 K1794  63.65456  344.12569  185.19053   20.76948  0.1248125  0.00392519  39.8011710  1 MPO384276    75   6 2004-2015 0.09 M-v 38h MPCADO     040E          2013 HU156         20150607
K13HF6V  5.0   0.15 K1794 278.30432  182.05500  168.51905   18.12581  0.1743645  0.00299610  47.6539307  3 MPO384276    47   4 2012-2015 0.12 M-v 38h MPCW       0410          2013 HV156         20150707
K13HF6W  7.4   0.15 K1794  41.82554   36.48173  125.99443    9.92893  0.2472396  0.00390638  39.9288291  2 MPO384276    15   4 2010-2013 0.16 M-v 38h MPCW       040E          2013 HW156         20130510
K13HF6X  7.9   0.15 K1794 199.58587  259.60191  137.17086   14.90618  0.1903665  0.00811030  24.5345526  3 MPO384276    13   4 2011-2014 0.18 M-v 38h MPCW       040A          2013 HX156         20140424
K13HF6Y  6.6   0.15 K1794 348.29123  154.20443   86.27143   21.37189  0.0695995  0.00373215  41.1620504  3 MPO384277    17   5 2010-2014 0.30 M-v 38h MPCW       0410          2013 HY156         20140404
K13HF6Z  6.9   0.15 K1794  34.54740   28.18839  159.06323   20.32332  0.1155079  0.00371828  41.2643495  3 MPO384277    19   4 2011-2014 0.13 M-v 38h MPCW       0410          2013 HZ156         20140408
K13J14X 11.7   0.15 K1794  73.14823  274.58939  245.98419   10.47349  0.3562864  0.02584524  11.3296283  0 MPO386868    69   5 2003-2014 0.21 M-v 38h MPCW       040A          2013 JX14          20140725
K13J63U  6.8   0.15 K1794  27.17778  259.63350  278.61807    4.28502  0.3519728  0.00265108  51.7036029  5 MPO293262     7   2 2013-2014 0.08 M-v 38h MPCW       0011          2013 JU63          20140502
K13J63V  6.0   0.15 K1794  66.91142  160.91819  350.47655    8.21382  0.2259196  0.00305343  47.0555796  4 MPO342289    12   3 2013-2015 0.22 M-v 38h MPCW       0010          2013 JV63          20150523
K13J63W  5.2   0.15 K1794 305.49201   18.06485  309.26620    7.74801  0.2525391  0.00293078  48.3593467  3 MPO293262     8   2 2013-2014 0.10 M-v 38h MPCW       000F          2013 JW63          20140502
K13J64C 12.1   0.15 K1794  12.75507  170.32706   71.51825   31.99252  0.3817570  0.00937949  22.2680991  3 MPO347301    15   2 2013-2014 0.10 M-v 38h MPCW       000A          2013 JC64          20140602
K13J64F  9.3   0.15 K1794   4.73442  128.37034  105.30318    8.78002  0.4572424  0.00233934  56.2005330  2 MPO419453    30   4 2013-2016 0.14 M-v 38h MPCLINUX   0411          2013 JF64          20160506
K13J64K  7.9   0.15 K1794   9.64124  122.06480  100.29414   11.06825  0.4157632  0.00235417  55.9642221  2 MPO419453    39   4 2013-2016 0.07 M-v 38h MPCLINUX   0411          2013 JK64          20160506
K13J64L  7.5   0.15 K1794  31.27444  104.81606   73.39833   27.61542  0.3720382  0.00226842  57.3658191  2 MPO419453    39   5 2013-2017 0.09 M-v 38h MPCLINUX   0411          2013 JL64          20170330
K13J64O  8.2   0.15 K1794   1.87844   40.82702  185.12325    8.57160  0.7637533  0.00054333 148.7389132  1 MPO419454    30   4 2013-2017 0.09 M-v 38h MPCLINUX   0411          2013 JO64          20170202
K13J64P  8.5   0.15 K1794 346.64637   79.55233  206.54418   13.67760  0.4411191  0.00223001  58.0227398  3 MPO347303    25   3 2013-2015 0.08 M-v 38h MPCW       0011          2013 JP64          20150322
K13J64Q  6.2   0.15 K1794  82.39076   32.13859   71.60002   34.76040  0.5425605  0.00284836  49.2878282  4 MPO419454    26   5 2013-2017 0.08 M-v 38h MPCLINUX   0411          2013 JQ64          20170330
K13J64R  8.8   0.15 K1794 359.89720  140.91894  109.58645   10.45388  0.5485343  0.00140523  78.9412364  3 MPO419454    27   4 2013-2016 0.11 M-v 38h MPCLINUX   0411          2013 JR64          20160603
K13J64S  8.5   0.15 K1794 343.86558   69.65427  191.95822    9.61617  0.0554264  0.00351560  42.8353946  3 MPO347303    18   2 2013-2014 0.11 M-v 38h MPCW       0010          2013 JS64          20140506
K13J64U  8.7   0.15 K1794   0.39323  167.48073   74.82607   26.55762  0.0766488  0.00382982  40.4591854  3 MPO413639    22   3 2013-2017 0.17 M-v 38h MPCLINUX   000E          2013 JU64          20170526
K13J64V  7.3   0.15 K1794 330.02951  113.51226  224.65840   31.29609  0.5756692  0.00156222  73.5600555  5 MPO347303    25   2 2013-2014 0.13 M-v 38h MPCW       0011          2013 JV64          20140718
K13J64Z  9.1   0.15 K1794 359.19559  130.15046  117.15907   10.12505  0.2393296  0.00392903  39.7752436  2 MPO419454    33   4 2013-2017 0.10 M-v 38h MPCLINUX   040E          2013 JZ64          20170202
K13J65A  9.0   0.15 K1794  16.08957   46.45063  177.03082   10.21440  0.1554258  0.00391984  39.8373808  4 MPO347304    31   3 2013-2015 0.13 M-v 38h MPCW       000E          2013 JA65          20150420
K13J65B  8.4   0.15 K1794   4.78555  166.24364   72.47421   24.85348  0.1952395  0.00393733  39.7192715  2 MPO419454    32   4 2013-2017 0.08 M-v 38h MPCLINUX   040E          2013 JB65          20170526
K13J65C  9.3   0.15 K1794  17.15375  127.74873   87.20022   16.38872  0.3007279  0.00393269  39.7505470  2 MPO419454    33   4 2013-2016 0.09 M-v 38h MPCLINUX   040E          2013 JC65          20160506
K13J65D  8.2   0.15 K1794 359.87218   47.94473  197.93802   12.99271  0.1001522  0.00394617  39.6599827  3 MPO347304    25   3 2013-2015 0.07 M-v 38h MPCW       000E          2013 JD65          20150420
K13J65E  9.3   0.15 K1794  39.30939   67.19175  113.86809    8.04486  0.2827663  0.00394085  39.6956086  2 MPO419454    27   4 2013-2016 0.11 M-v 38h MPCLINUX   040E          2013 JE65          20160506
K13J65F  9.2   0.15 K1794  10.65863  119.36138  112.69592    8.31219  0.1828702  0.00393789  39.7155367  3 MPO419454    30   4 2013-2016 0.12 M-v 38h MPCLINUX   040E          2013 JF65          20160506
K13J65G  9.0   0.15 K1794 353.42353  174.04261   85.26048   15.91338  0.2554895  0.00393865  39.7104352  2 MPO419454    31   4 2013-2016 0.09 M-v 38h MPCLINUX   040E          2013 JG65          20160506
K13J65H  9.4   0.15 K1794 345.61381  116.95384  160.53801    7.55167  0.2915886  0.00395617  39.5931073  3 MPO419454    26   5 2013-2017 0.18 M-v 38h MPCLINUX   040E          2013 JH65          20170526
K13J65M  7.1   0.15 K1794 204.98273  307.77152   92.20179   11.18792  0.1169281  0.00305219  47.0682507  4 MPO419454    33   4 2013-2017 0.11 M-v 38h MPCLINUX   0410          2013 JM65          20170502
